
# Worst residual: 7.87 km
# MJD 59737.000000 (2022 Jun  7  0:00)
1976-023H = NORAD 08753 = S510923 = SOLRAD-11 debris
1 08753U 76023H   22158.49919926  .00000000  00000-0  00000-0 0 14523
2 08753 023.7620 325.6974 0372456 067.5451 274.7642 00.18680529    07

# Worst residual: 9.00 km
# MJD 59738.000000 (2022 Jun  8  0:00)
1976-023H = NORAD 08753 = S510923 = SOLRAD-11 debris
1 08753U 76023H   22159.49919926  .00000000  00000-0  00000-0 0 14524
2 08753 023.7597 325.6949 0381367 068.0547 341.5651 00.18673083    05

# Worst residual: 10.41 km
# MJD 59739.000000 (2022 Jun  9  0:00)
1976-023H = NORAD 08753 = S510923 = SOLRAD-11 debris
1 08753U 76023H   22160.49919926  .00000000  00000-0  00000-0 0 14526
2 08753 023.7524 325.6996 0374080 069.0275 047.8965 00.18690638    09

# Worst residual: 12.38 km
# MJD 59740.000000 (2022 Jun 10  0:00)
1976-023H = NORAD 08753 = S510923 = SOLRAD-11 debris
1 08753U 76023H   22161.49919926  .00000000  00000-0  00000-0 0 14527
2 08753 023.7438 325.6923 0356880 068.6363 115.7685 00.18708503    09

# Worst residual: 10.31 km
# MJD 59741.000000 (2022 Jun 11  0:00)
1976-023H = NORAD 08753 = S510923 = SOLRAD-11 debris
1 08753U 76023H   22162.49919926  .00000000  00000-0  00000-0 0 14528
2 08753 023.7192 325.6533 0334066 070.9092 180.7359 00.18642034    06

# Worst residual: 14.96 km
# MJD 59742.000000 (2022 Jun 12  0:00)
1976-023H = NORAD 08753 = S510923 = SOLRAD-11 debris
1 08753U 76023H   22163.49919926  .00000000  00000-0  00000-0 0 14529
2 08753 023.7117 325.5977 0347981 074.1803 244.5912 00.18699517    02

# Worst residual: 13.21 km
# MJD 59743.000000 (2022 Jun 13  0:00)
1976-023H = NORAD 08753 = S510923 = SOLRAD-11 debris
1 08753U 76023H   22164.49919926  .00000000  00000-0  00000-0 0 14520
2 08753 023.7051 325.5898 0365074 075.9556 310.3591 00.18726520    08

# Worst residual: 8.83 km
# MJD 59744.000000 (2022 Jun 14  0:00)
1976-023H = NORAD 08753 = S510923 = SOLRAD-11 debris
1 08753U 76023H   22165.49919926  .00000000  00000-0  00000-0 0 14521
2 08753 023.6964 325.5867 0388118 076.2370 017.4554 00.18665049    00

# Worst residual: 11.11 km
# MJD 59745.000000 (2022 Jun 15  0:00)
1976-023H = NORAD 08753 = S510923 = SOLRAD-11 debris
1 08753U 76023H   22166.49919926  .00000000  00000-0  00000-0 0 14522
2 08753 023.6885 325.5767 0386266 075.7601 085.1190 00.18676450    00

# Worst residual: 13.15 km
# MJD 59746.000000 (2022 Jun 16  0:00)
1976-023H = NORAD 08753 = S510923 = SOLRAD-11 debris
1 08753U 76023H   22167.49919926  .00000000  00000-0  00000-0 0 14523
2 08753 023.6798 325.5701 0384199 072.5495 155.7873 00.18726855    07

# Worst residual: 11.80 km
# MJD 59747.000000 (2022 Jun 17  0:00)
1976-023H = NORAD 08753 = S510923 = SOLRAD-11 debris
1 08753U 76023H   22168.49919926  .00000000  00000-0  00000-0 0 14524
2 08753 023.6699 325.5686 0376395 070.1093 225.7357 00.18699805    05

# Worst residual: 8.90 km
# MJD 59748.000000 (2022 Jun 18  0:00)
1976-023H = NORAD 08753 = S510923 = SOLRAD-11 debris
1 08753U 76023H   22169.49919926  .00000000  00000-0  00000-0 0 14525
2 08753 023.6348 325.6045 0367462 068.1660 294.7935 00.18660810    00

# Worst residual: 7.98 km
# MJD 59749.000000 (2022 Jun 19  0:00)
1976-023H = NORAD 08753 = S510923 = SOLRAD-11 debris
1 08753U 76023H   22170.49919926  .00000000  00000-0  00000-0 0 14527
2 08753 023.6049 325.5785 0354689 070.8274 359.4619 00.18714431    03

# Worst residual: 6.76 km
# MJD 59750.000000 (2022 Jun 20  0:00)
1976-023H = NORAD 08753 = S510923 = SOLRAD-11 debris
1 08753U 76023H   22171.49919926  .00000000  00000-0  00000-0 0 14528
2 08753 023.5952 325.5781 0353890 072.9345 064.7864 00.18698558    05

# Worst residual: 5.95 km
# MJD 59751.000000 (2022 Jun 21  0:00)
1976-023H = NORAD 08753 = S510923 = SOLRAD-11 debris
1 08753U 76023H   22172.49919926  .00000000  00000-0  00000-0 0 14529
2 08753 023.5899 325.5734 0347616 073.5654 131.4812 00.18686812    07

# Worst residual: 4.85 km
# MJD 59752.000000 (2022 Jun 22  0:00)
1976-023H = NORAD 08753 = S510923 = SOLRAD-11 debris
1 08753U 76023H   22173.49919926  .00000000  00000-0  00000-0 0 14520
2 08753 023.5841 325.5796 0344525 072.8370 199.4957 00.18682662    08

# Worst residual: 10.50 km
# MJD 59753.000000 (2022 Jun 23  0:00)
1976-023H = NORAD 08753 = S510923 = SOLRAD-11 debris
1 08753U 76023H   22174.49919926  .00000000  00000-0  00000-0 0 14521
2 08753 023.5765 325.5712 0355831 072.8990 266.8008 00.18702321    02

# Worst residual: 13.90 km
# MJD 59754.000000 (2022 Jun 24  0:00)
1976-023H = NORAD 08753 = S510923 = SOLRAD-11 debris
1 08753U 76023H   22175.49919926  .00000000  00000-0  00000-0 0 14522
2 08753 023.5697 325.5655 0377988 072.9694 334.2030 00.18674309    00

# Worst residual: 8.34 km
# MJD 59755.000000 (2022 Jun 25  0:00)
1976-023H = NORAD 08753 = S510923 = SOLRAD-11 debris
1 08753U 76023H   22176.49919926  .00000000  00000-0  00000-0 0 14523
2 08753 023.5585 325.5434 0387268 073.2859 041.0694 00.18646967    08

# Worst residual: 18.21 km
# MJD 59756.000000 (2022 Jun 26  0:00)
1976-023H = NORAD 08753 = S510923 = SOLRAD-11 debris
1 08753U 76023H   22177.49919926  .00000000  00000-0  00000-0 0 14524
2 08753 023.5526 325.5322 0366616 071.4115 110.3443 00.18699841    09

# Worst residual: 14.01 km
# MJD 59757.000000 (2022 Jun 27  0:00)
1976-023H = NORAD 08753 = S510923 = SOLRAD-11 debris
1 08753U 76023H   22178.49919926  .00000000  00000-0  00000-0 0 14525
2 08753 023.5458 325.5319 0349948 069.5909 179.6539 00.18685581    07

# Worst residual: 4.07 km
# MJD 59758.000000 (2022 Jun 28  0:00)
1976-023H = NORAD 08753 = S510923 = SOLRAD-11 debris
1 08753U 76023H   22179.49919926  .00000000  00000-0  00000-0 0 14526
2 08753 023.5372 325.5242 0345190 068.1985 248.3080 00.18662591    02

# Worst residual: 16.22 km
# MJD 59759.000000 (2022 Jun 29  0:00)
1976-023H = NORAD 08753 = S510923 = SOLRAD-11 debris
1 08753U 76023H   22180.49919926  .00000000  00000-0  00000-0 0 14528
2 08753 023.5316 325.5161 0351799 070.7649 313.0783 00.18703044    07

# Worst residual: 16.61 km
# MJD 59760.000000 (2022 Jun 30  0:00)
1976-023H = NORAD 08753 = S510923 = SOLRAD-11 debris
1 08753U 76023H   22181.49919926  .00000000  00000-0  00000-0 0 14529
2 08753 023.5232 325.5137 0362031 073.8280 017.5315 00.18690417    09

# Worst residual: 5.22 km
# MJD 59761.000000 (2022 Jul  1  0:00)
1976-023H = NORAD 08753 = S510923 = SOLRAD-11 debris
1 08753U 76023H   22182.49919926  .00000000  00000-0  00000-0 0 14520
2 08753 023.5058 325.5310 0370476 076.0205 082.5233 00.18645214    08

# Worst residual: 15.59 km
# MJD 59762.000000 (2022 Jul  2  0:00)
1976-023H = NORAD 08753 = S510923 = SOLRAD-11 debris
1 08753U 76023H   22183.49919926  .00000000  00000-0  00000-0 0 14521
2 08753 023.4857 325.5239 0371949 072.3759 153.4991 00.18705102    05
